{
    "links": {
        "self": "http://www.neowsapp.com/rest/v1/neo/3776273?api_key=iIulBulltgU6a56xZRHN4H3l9WmuAYTsLGpBGhQ2"
    },
    "id": "3776273",
    "neo_reference_id": "3776273",
    "name": "(2017 MP8)",
    "designation": "2017 MP8",
    "nasa_jpl_url": "http://ssd.jpl.nasa.gov/sbdb.cgi?sstr=3776273",
    "absolute_magnitude_h": 22.6,
    "estimated_diameter": {
        "kilometers": {
            "estimated_diameter_min": 0.0802703167,
            "estimated_diameter_max": 0.1794898848
        },
        "meters": {
            "estimated_diameter_min": 80.2703167283,
            "estimated_diameter_max": 179.4898847799
        },
        "miles": {
            "estimated_diameter_min": 0.049877647,
            "estimated_diameter_max": 0.1115298092
        },
        "feet": {
            "estimated_diameter_min": 263.3540659348,
            "estimated_diameter_max": 588.8775935812
        }
    },
    "is_potentially_hazardous_asteroid": false,
    "close_approach_data": [
        {
            "close_approach_date": "2017-06-30",
            "close_approach_date_full": "2017-Jun-30 15:07",
            "epoch_date_close_approach": 1498835220000,
            "relative_velocity": {
                "kilometers_per_second": "23.7325126443",
                "kilometers_per_hour": "85437.0455193832",
                "miles_per_hour": "53087.2575339745"
            },
            "miss_distance": {
                "astronomical": "0.1074355898",
                "lunar": "41.7924444322",
                "kilometers": "16072135.396273726",
                "miles": "9986761.8429443788"
            },
            "orbiting_body": "Earth"
        }
    ],
    "orbital_data": {
        "orbit_id": "2",
        "orbit_determination_date": "2017-07-04 06:19:52",
        "first_observation_date": "2017-06-29",
        "last_observation_date": "2017-07-03",
        "data_arc_in_days": 4,
        "observations_used": 37,
        "orbit_uncertainty": "9",
        "minimum_orbit_intersection": ".0626872",
        "jupiter_tisserand_invariant": "4.341",
        "epoch_osculation": "2457935.5",
        "eccentricity": ".4912166724554023",
        "semi_major_axis": "1.447833660336433",
        "inclination": "35.65613727081551",
        "ascending_node_longitude": "101.0844747804916",
        "orbital_period": "636.3212557412796",
        "perihelion_distance": ".736633627437045",
        "perihelion_argument": "86.33148776112994",
        "aphelion_distance": "2.15903369323582",
        "perihelion_time": "2457874.995936242863",
        "mean_anomaly": "34.23029288436247",
        "mean_motion": ".5657519637319354",
        "equinox": "J2000",
        "orbit_class": {
            "orbit_class_type": "APO",
            "orbit_class_description": "Near-Earth asteroid orbits which cross the Earth’s orbit similar to that of 1862 Apollo",
            "orbit_class_range": "a (semi-major axis) > 1.0 AU; q (perihelion) < 1.017 AU"
        }
    },
    "is_sentry_object": false
}